OBJECT_NAME,OBJECT_ID,EPOCH,MEAN_MOTION,ECCENTRICITY,INCLINATION,RA_OF_ASC_NODE,ARG_OF_PERICENTER,MEAN_ANOMALY,EPHEMERIS_TYPE,CLASSIFICATION_TYPE,NORAD_CAT_ID,ELEMENT_SET_NO,REV_AT_EPOCH,BSTAR,MEAN_MOTION_DOT,MEAN_MOTION_DDOT
STARLINK-37992,2026-145E,2026-07-19T13:21:59.533056,15.75226458,.0001097,97.2839,47.6126,104.4482,255.6905,0,U,69681,999,386,.95716E-3,.145319E-2,0
STARLINK-37997,2026-145F,2026-07-17T00:00:02.000160,15.75175815,.00011924,97.2838,44.9322,99.5818,174.9569,0,U,69682,999,471,-.22624739E-4,-.3501E-4,0
STARLINK-37990,2026-145G,2026-07-19T13:21:29.065824,15.75200713,.0000672,97.2823,47.6120,103.1718,256.9622,0,U,69683,999,386,.82332E-3,.124535E-2,0
STARLINK-37951,2026-145H,2026-07-19T13:19:57.607104,15.75200094,.0000381,97.2834,47.6138,108.8369,251.2938,0,U,69684,999,386,.66025E-3,.99547E-3,0
STARLINK-37957,2026-145J,2026-07-19T13:18:26.187264,15.75200467,.0001464,97.2839,47.6155,92.0002,268.1431,0,U,69685,999,386,.78297E-3,.118341E-2,0
STARLINK-37968,2026-145K,2026-07-19T20:00:01.999008,15.68421372,.0001937,97.2845,47.9206,82.0922,77.4557,0,U,69686,999,517,-.24968E-1,-.2458458E-1,0
STARLINK-37977,2026-145L,2026-07-19T13:08:46.737888,15.75204737,.00012442,97.2836,47.6256,87.1386,273.0021,0,U,69687,999,386,.64425397E-3,.97126E-3,0
STARLINK-37908,2026-145M,2026-07-19T13:05:44.552256,15.75106204,.00035854,97.2839,47.6288,3.1254,357.0033,0,U,69688,999,386,.38192988E-2,.609932E-2,0
STARLINK-37979,2026-145N,2026-07-19T00:53:31.139808,15.74987322,.0004064,97.2836,47.0963,329.7447,30.3583,0,U,69689,999,378,.12423645E-2,.187711E-2,0
STARLINK-37940,2026-145P,2026-07-19T16:00:03.000096,15.75256904,.0001312,97.2839,47.7612,87.8586,246.2551,0,U,69690,999,514,-.1122E-2,-.164773E-2,0
STARLINK-37961,2026-145Q,2026-07-19T12:59:07.960704,15.75103371,.00012296,97.2842,47.6340,131.0284,229.1087,0,U,69691,999,386,.42417508E-3,.63371E-3,0
STARLINK-37787,2026-145R,2026-07-19T12:56:04.638048,15.75202120,.00008109,97.2838,47.6377,90.2004,269.9354,0,U,69692,999,386,.94385882E-3,.143109E-2,0
STARLINK-37962,2026-145S,2026-07-19T12:53:32.174016,15.75257788,.00010326,97.2841,47.6407,109.2198,250.9179,0,U,69693,999,386,.12582497E-2,.192397E-2,0
STARLINK-37953,2026-145T,2026-07-19T02:17:15.153792,15.75176117,.00028922,97.2820,47.1697,77.2614,282.8974,0,U,69694,999,379,.78738845E-3,.118908E-2,0
STARLINK-37926,2026-145U,2026-07-19T20:34:47.447904,15.72760213,.0003215,97.2833,47.9716,359.9867,0.1396,0,U,69695,999,391,-.33093E-2,-.423689E-2,0
STARLINK-37959,2026-145V,2026-07-19T12:55:03.697536,15.75203497,.00007424,97.2842,47.6382,66.7292,293.4051,0,U,69696,999,386,.10206029E-2,.154982E-2,0
STARLINK-37976,2026-145W,2026-07-19T12:50:59.782560,15.75199672,.00008448,97.2843,47.6427,79.7595,280.3766,0,U,69697,999,386,.10020979E-2,.152093E-2,0
STARLINK-37912,2026-145X,2026-07-19T12:49:28.261632,15.75263091,.00014222,97.2834,47.6442,116.0489,244.0923,0,U,69698,999,386,.13241913E-2,.202783E-2,0
STARLINK-37974,2026-145Y,2026-07-19T11:16:58.631520,15.75242320,.00027301,97.2828,47.5793,50.3277,309.8229,0,U,69699,999,385,.73792169E-3,.111652E-2,0
STARLINK-37955,2026-145Z,2026-07-19T20:22:17.808672,15.75214997,.0002173,97.2841,47.9826,102.7540,257.3968,0,U,69700,999,391,.93668E-3,.14209E-2,0
STRIX-8,2026-146A,2026-07-19T19:11:38.484672,15.04456378,.0006574,41.9906,347.5854,56.1804,303.9648,0,U,69701,999,347,.16393E-3,.2141E-4,0
ELECTRON R/B,2026-146B,2026-07-19T17:28:05.547072,15.79046253,.015589,42.0730,334.6498,52.2654,309.2214,0,U,69702,999,362,.97636E-3,.436472E-2,.70112E-4
ELECTRON KICK STAGE R/B,2026-146C,2026-07-19T19:00:17.853984,15.04962866,.0008386,41.9889,347.5217,56.5882,303.5746,0,U,69703,999,347,.14769E-3,.1938E-4,0
STARLINK-38055,2026-147A,2026-07-19T20:29:05.224416,15.80871489,.0004354,97.2839,237.5102,76.6375,283.5378,0,U,69704,999,459,.10098E-2,.198322E-2,0
STARLINK-37898,2026-147B,2026-07-19T20:00:01.999008,15.77483147,.0001782,97.2839,237.4900,93.3096,153.0444,0,U,69705,999,448,-.17581E-1,-.2485961E-1,0
STARLINK-37970,2026-147C,2026-07-19T20:00:01.999008,15.76771471,.0001619,97.2842,237.4910,89.6493,159.4593,0,U,69706,999,448,-.1902E-1,-.2585826E-1,0
STARLINK-37975,2026-147D,2026-07-19T12:49:57.069120,15.80901716,.0001089,97.2838,237.1787,75.3437,284.7952,0,U,69707,999,454,.11224E-2,.221256E-2,0
STARLINK-37972,2026-147E,2026-07-19T12:48:51.991776,15.80885275,.0000563,97.2835,237.1792,84.6454,275.4879,0,U,69708,999,454,.87699E-3,.171731E-2,0
STARLINK-37963,2026-147F,2026-07-19T20:24:01.853280,15.79036242,.0003848,97.2849,237.5145,314.6465,45.4488,0,U,69709,999,459,-.62296E-2,-.984489E-2,0
STARLINK-37969,2026-147G,2026-07-19T12:46:43.869216,15.80829966,.0002003,97.2837,237.1813,0.6740,359.4531,0,U,69710,999,454,.10325E-2,.202429E-2,0
