STARLINK-37992          
1 69681U 26145E   26200.55693904  .00145319  00000+0  95716-3 0  9992
2 69681  97.2839  47.6126 0001097 104.4482 255.6905 15.75226458  3860
STARLINK-37997          
1 69682U 26145F   26198.00002315 -.00003501  00000+0 -22625-4 0  9997
2 69682  97.2838  44.9322 0001192  99.5818 174.9569 15.75175815  4715
STARLINK-37990          
1 69683U 26145G   26200.55658641  .00124535  00000+0  82332-3 0  9990
2 69683  97.2823  47.6120 0000672 103.1718 256.9622 15.75200713  3861
STARLINK-37951          
1 69684U 26145H   26200.55552786  .00099547  00000+0  66025-3 0  9999
2 69684  97.2834  47.6138 0000381 108.8369 251.2938 15.75200094  3864
STARLINK-37957          
1 69685U 26145J   26200.55446976  .00118341  00000+0  78297-3 0  9991
2 69685  97.2839  47.6155 0001464  92.0002 268.1431 15.75200467  3869
STARLINK-37968          
1 69686U 26145K   26200.83335647 -.02458458  00000+0 -24968-1 0  9999
2 69686  97.2845  47.9206 0001937  82.0922  77.4557 15.68421372  5170
STARLINK-37977          
1 69687U 26145L   26200.54776317  .00097126  00000+0  64425-3 0  9992
2 69687  97.2836  47.6256 0001244  87.1386 273.0021 15.75204737  3860
STARLINK-37908          
1 69688U 26145M   26200.54565454  .00609932  00000+0  38193-2 0  9997
2 69688  97.2839  47.6288 0003585   3.1254 357.0033 15.75106204  3867
STARLINK-37979          
1 69689U 26145N   26200.03716597  .00187711  00000+0  12424-2 0  9993
2 69689  97.2836  47.0963 0004064 329.7447  30.3583 15.74987322  3782
STARLINK-37940          
1 69690U 26145P   26200.66670139 -.00164773  00000+0 -11220-2 0  9993
2 69690  97.2839  47.7612 0001312  87.8586 246.2551 15.75256904  5145
STARLINK-37961          
1 69691U 26145Q   26200.54106436  .00063371  00000+0  42418-3 0  9999
2 69691  97.2842  47.6340 0001229 131.0284 229.1087 15.75103371  3861
STARLINK-37787          
1 69692U 26145R   26200.53894257  .00143109  00000+0  94386-3 0  9993
2 69692  97.2838  47.6377 0000810  90.2004 269.9354 15.75202120  3869
STARLINK-37962          
1 69693U 26145S   26200.53717794  .00192397  00000+0  12582-2 0  9994
2 69693  97.2841  47.6407 0001032 109.2198 250.9179 15.75257788  3865
STARLINK-37953          
1 69694U 26145T   26200.09531428  .00118908  00000+0  78739-3 0  9997
2 69694  97.2820  47.1697 0002892  77.2614 282.8974 15.75176117  3796
STARLINK-37926          
1 69695U 26145U   26200.85749361 -.00423689  00000+0 -33093-2 0  9999
2 69695  97.2833  47.9716 0003215 359.9867   0.1396 15.72760213  3917
STARLINK-37959          
1 69696U 26145V   26200.53823724  .00154982  00000+0  10206-2 0  9997
2 69696  97.2842  47.6382 0000742  66.7292 293.4051 15.75203497  3869
STARLINK-37976          
1 69697U 26145W   26200.53541415  .00152093  00000+0  10021-2 0  9998
2 69697  97.2843  47.6427 0000844  79.7595 280.3766 15.75199672  3861
STARLINK-37912          
1 69698U 26145X   26200.53435488  .00202783  00000+0  13242-2 0  9991
2 69698  97.2834  47.6442 0001422 116.0489 244.0923 15.75263091  3868
STARLINK-37974          
1 69699U 26145Y   26200.47012305  .00111652  00000+0  73792-3 0  9995
2 69699  97.2828  47.5793 0002730  50.3277 309.8229 15.75242320  3858
STARLINK-37955          
1 69700U 26145Z   26200.84881723  .00142090  00000+0  93668-3 0  9991
2 69700  97.2841  47.9826 0002173 102.7540 257.3968 15.75214997  3916
STRIX-8                 
1 69701U 26146A   26200.79975098  .00002141  00000+0  16393-3 0  9998
2 69701  41.9906 347.5854 0006574  56.1804 303.9648 15.04456378  3476
ELECTRON R/B            
1 69702U 26146B   26200.72784198  .00436472  70112-4  97636-3 0  9994
2 69702  42.0730 334.6498 0155890  52.2654 309.2214 15.79046253  3625
ELECTRON KICK STAGE R/B 
1 69703U 26146C   26200.79187331  .00001938  00000+0  14769-3 0  9993
2 69703  41.9889 347.5217 0008386  56.5882 303.5746 15.04962866  3473
STARLINK-38055          
1 69704U 26147A   26200.85353269  .00198322  00000+0  10098-2 0  9991
2 69704  97.2839 237.5102 0004354  76.6375 283.5378 15.80871489  4591
STARLINK-37898          
1 69705U 26147B   26200.83335647 -.02485961  00000+0 -17581-1 0  9995
2 69705  97.2839 237.4900 0001782  93.3096 153.0444 15.77483147  4484
STARLINK-37970          
1 69706U 26147C   26200.83335647 -.02585826  00000+0 -19020-1 0  9997
2 69706  97.2842 237.4910 0001619  89.6493 159.4593 15.76771471  4482
STARLINK-37975          
1 69707U 26147D   26200.53468830  .00221256  00000+0  11224-2 0  9995
2 69707  97.2838 237.1787 0001089  75.3437 284.7952 15.80901716  4548
STARLINK-37972          
1 69708U 26147E   26200.53393509  .00171731  00000+0  87699-3 0  9998
2 69708  97.2835 237.1792 0000563  84.6454 275.4879 15.80885275  4546
STARLINK-37963          
1 69709U 26147F   26200.85002145 -.00984489  00000+0 -62296-2 0  9996
2 69709  97.2849 237.5145 0003848 314.6465  45.4488 15.79036242  4591
STARLINK-37969          
1 69710U 26147G   26200.53245219  .00202429  00000+0  10325-2 0  9995
2 69710  97.2837 237.1813 0002003   0.6740 359.4531 15.80829966  4545
